YAOGAN-3                
1 32289U 07055A   26190.00796315  .00000557  00000+0  62186-4 0  9993
2 32289  97.8148 219.6697 0001525  77.1756 282.9633 14.90863376  9121
YAOGAN-4                
1 33446U 08061A   26189.82237118  .00000707  00000+0  93027-4 0  9991
2 33446  97.9305 123.1735 0014397   6.5706 353.5694 14.83243579948872
YAOGAN-7                
1 36110U 09069A   26189.61704388  .00000339  00000+0  54067-4 0  9998
2 36110  98.0044  75.3492 0023935 333.3807  26.6172 14.78031471892792
ZIYUAN 1-02C (ZY 1-02C) 
1 38038U 11079A   26190.00203979  .00000051  00000+0  30984-4 0  9991
2 38038  98.4059 256.8540 0005294 236.3776 246.4428 14.38231872762344
YAOGAN-22               
1 40275U 14063A   26189.93628709 -.00000029  00000+0  46042-4 0  9993
2 40275 100.7753 341.5732 0006775 138.1586 222.0044 13.15531434562675
YAOGAN-24               
1 40310U 14072A   26189.97656655  .00000308  00000+0  52206-4 0  9996
2 40310  98.1517 327.5000 0014079 189.6871 170.4069 14.76113570626937
YAOGAN-26               
1 40362U 14088A   26189.98556571  .00018335  00000+0  34897-3 0  9991
2 40362  97.0652 189.6964 0002796  11.9290 348.2027 15.48261564641071
YAOGAN-27               
1 40878U 15040A   26189.99857065  .00000218  00000+0  68604-3 0  9999
2 40878 100.1169 175.4353 0008385 158.8584 201.2878 13.16072781520537
YAOGAN-28               
1 41026U 15064A   26189.93981168  .00004918  00000+0  18403-3 0  9990
2 41026  97.3097 327.7654 0012007 112.2540 247.9975 15.27707375594004
YAOGAN-29               
1 41038U 15069A   26189.96987366  .00000275  00000+0  40418-4 0  9991
2 41038  98.0024 218.6358 0001188  21.2022 338.9240 14.83102849573858
